NORAD_CAT_ID,OBJECT_NAME,OBJECT_TYPE,EPOCH,MEAN_MOTION,ECCENTRICITY,INCLINATION,RA_OF_ASC_NODE,ARG_OF_PERICENTER,MEAN_ANOMALY,BSTAR,MEAN_MOTION_DOT,MEAN_MOTION_DDOT,TLE_LINE0,TLE_LINE1,TLE_LINE2,SEMIMAJOR_AXIS,PERIOD,APOGEE,PERIGEE,DECAYED
52345.0,STARLINK-3852,PAYLOAD,2022-05-04 18:00:02,15.83552473,8.22e-05,53.2175,52.4051,43.1282,9.3601,-0.0043495,-0.00880819,0.0,0 STARLINK-3852,1 52345U 22045Q   22124.75002315 -.00880819  00000-0 -43495-2 0  9999,2 52345  53.2175  52.4051 0000822  43.1282   9.3601 15.83552473  3301,6698.541,90.935,320.956,319.855,0.0
52345.0,STARLINK-3852,PAYLOAD,2022-05-05 14:00:01,15.81975497,0.0001051,53.2174,48.223,73.6791,49.7764,-0.0046468,-0.00873975,0.0,0 STARLINK-3852,1 52345U 22045Q   22125.58334491 -.00873975  00000-0 -46468-2 0  9992,2 52345  53.2174  48.2230 0001051  73.6791  49.7764 15.81975497  3435,6702.9919999999975,91.025,325.561,324.152,0.0
52345.0,STARLINK-3852,PAYLOAD,2022-05-05 22:00:00,15.81348271,0.0001202,53.2176,46.5534,70.8409,151.703,-0.0048059,-0.0087739,0.0,0 STARLINK-3852,1 52345U 22045Q   22125.91667824 -.00877390  00000-0 -48059-2 0  9991,2 52345  53.2176  46.5534 0001202  70.8409 151.7030 15.81348271  1463,6704.764,91.062,327.435,325.823,0.0
52345.0,STARLINK-3852,PAYLOAD,2022-05-06 08:00:01,15.80479071,0.0001039,53.2163,44.4692,87.6815,347.7018,-0.0043166,-0.00766723,0.0,0 STARLINK-3852,1 52345U 22045Q   22126.33334491 -.00766723  00000-0 -43166-2 0  9990,2 52345  53.2163  44.4692 0001039  87.6815 347.7018 15.80479071  3553,6707.222,91.112,329.784,328.39,0.0
52345.0,STARLINK-3852,PAYLOAD,2022-05-06 14:00:01,15.80087452,9.45e-05,53.2176,43.2167,89.454,329.0023,-0.0050708,-0.00873396,0.0,0 STARLINK-3852,1 52345U 22045Q   22126.58334491 -.00873396  00000-0 -50708-2 0  9992,2 52345  53.2176  43.2167 0000945  89.4540 329.0023 15.80087452  1578,6708.33,91.134,330.829,329.561,0.0
52345.0,STARLINK-3852,PAYLOAD,2022-05-06 22:00:00,15.79459229,0.0001142,53.2177,41.5518,79.438,75.8378,-0.0052289,-0.00874873,0.0,0 STARLINK-3852,1 52345U 22045Q   22126.91667824 -.00874873  00000-0 -52289-2 0  9995,2 52345  53.2177  41.5518 0001142  79.4380  75.8378 15.79459229  3643,6710.109,91.17,332.74,331.207,0.0
52345.0,STARLINK-3852,PAYLOAD,2022-05-07 14:00:01,15.78199586,9.65e-05,53.2173,38.2243,90.5086,256.142,-0.0055251,-0.00872967,0.0,0 STARLINK-3852,1 52345U 22045Q   22127.58334491 -.00872967  00000-0 -55251-2 0  9994,2 52345  53.2173  38.2243 0000965  90.5086 256.1420 15.78199586  1732,6713.679,91.243,336.19199999999995,334.896,0.0
52345.0,STARLINK-3852,PAYLOAD,2022-05-07 20:00:01,15.77731497,0.0001043,53.2175,36.9787,82.4926,245.1409,-0.0056835,-0.00878617,0.0,0 STARLINK-3852,1 52345U 22045Q   22127.83334491 -.00878617  00000-0 -56835-2 0  9999,2 52345  53.2175  36.9787 0001043  82.4926 245.1409 15.77731497  3787,6715.007,91.27,337.57199999999995,336.171,0.0
52345.0,STARLINK-3852,PAYLOAD,2022-05-07 22:00:00,15.77572179,0.0001062,53.2174,36.5644,69.8074,11.3936,-0.0057025,-0.00875574,0.0,0 STARLINK-3852,1 52345U 22045Q   22127.91667824 -.00875574  00000-0 -57025-2 0  9998,2 52345  53.2174  36.5644 0001062  69.8074  11.3936 15.77572179  1784,6715.459,91.28,338.037,336.611,0.0
52345.0,STARLINK-3852,PAYLOAD,2022-05-08 14:00:01,15.76312196,0.0001107,53.2175,33.2457,98.7028,169.3355,-0.0060123,-0.00872816,0.0,0 STARLINK-3852,1 52345U 22045Q   22128.58334491 -.00872816  00000-0 -60123-2 0  9992,2 52345  53.2175  33.2457 0001107  98.7028 169.3355 15.76312196  1881,6719.0369999999975,91.352,341.646,340.158,0.0
52345.0,STARLINK-3852,PAYLOAD,2022-05-08 20:00:01,15.75841719,0.0001178,53.2178,32.004,95.7766,151.5444,-0.0061567,-0.00875086,0.0,0 STARLINK-3852,1 52345U 22045Q   22128.83334491 -.00875086  00000-0 -61567-2 0  9995,2 52345  53.2178  32.0040 0001178  95.7766 151.5444 15.75841719  3941,6720.374,91.38,343.031,341.44699999999995,0.0
52345.0,STARLINK-3852,PAYLOAD,2022-05-08 22:00:00,15.75684993,9.92e-05,53.2177,31.5906,91.7712,268.5497,-0.0062077,-0.00876067,0.0,0 STARLINK-3852,1 52345U 22045Q   22128.91667824 -.00876067  00000-0 -62077-2 0  9990,2 52345  53.2177  31.5906 0000992  91.7712 268.5497 15.75684993  1949,6720.82,91.389,343.351,342.01800000000014,0.0
52345.0,STARLINK-3852,PAYLOAD,2022-05-09 14:00:01,15.74424631,0.0001138,53.2171,28.281,91.1584,91.528,-0.0065334999999999,-0.0087274,0.0,0 STARLINK-3852,1 52345U 22045Q   22129.58335648 -.00872740  00000-0 -65335-2 0  9994,2 52345  53.2171  28.2810 0001138  91.1584  91.5280 15.74424631  2040,6724.406,91.462,347.036,345.506,0.0
52345.0,STARLINK-3852,PAYLOAD,2022-05-09 22:00:00,15.73699771,0.0001238,53.2173,26.6308,92.1137,180.5399,-0.0047733,-0.00635731,0.0,0 STARLINK-3852,1 52345U 22045Q   22129.91667824 -.00635731  00000-0 -47733-2 0  9994,2 52345  53.2173  26.6308 0001238  92.1137 180.5399 15.73699771  2107,6726.471,91.504,349.168,347.50300000000016,0.0
52345.0,STARLINK-3852,PAYLOAD,2022-05-10 00:00:00,15.73474017,0.000107,53.2173,26.2186,95.5206,289.5273,-0.0028408,-0.00386055,0.0,0 STARLINK-3852,1 52345U 22045Q   22130.00001157 -.00386055  00000-0 -28408-2 0  9997,2 52345  53.2173  26.2186 0001070  95.5206 289.5273 15.73474017  4124,6727.114000000001,91.517,349.699,348.259,0.0
52345.0,STARLINK-3852,PAYLOAD,2022-05-10 08:00:01,15.73204386,0.0001306,53.2147,24.5701,92.7052,21.4542,-3.015e-05,-4.85e-05,0.0,0 STARLINK-3852,1 52345U 22045Q   22130.33334491 -.00004850  00000-0 -30150-4 0  9992,2 52345  53.2147  24.5701 0001306  92.7052  21.4542 15.73204386  4187,6727.8830000000025,91.533,350.626,348.869,0.0
52345.0,STARLINK-3852,PAYLOAD,2022-05-10 14:00:01,15.73185108,0.0001185,53.2158,23.3306,100.8078,350.0602,-6.7507e-05,-0.00010076,0.0,0 STARLINK-3852,1 52345U 22045Q   22130.58334491 -.00010076  00000-0 -67507-4 0  9992,2 52345  53.2158  23.3306 0001185 100.8078 350.0602 15.73185108  2200,6727.938,91.534,350.6,349.005,0.0
52345.0,STARLINK-3852,PAYLOAD,2022-05-10 18:00:00,15.73230443,0.0001396999999999,53.2141,22.5082,102.0775,213.239,0.00024228,0.00033562,0.0,0 STARLINK-3852,1 52345U 22045Q   22130.75001157  .00033562  00000-0  24228-3 0  9996,2 52345  53.2141  22.5082 0001397 102.0775 213.2390 15.73230443  4240,6727.808000000001,91.531,350.61300000000006,348.7340000000001,0.0
52345.0,STARLINK-3852,PAYLOAD,2022-05-11 22:00:00,15.73190305,0.0001238,53.2138,16.7358,99.1642,347.601,0.00016315,0.00022328,0.0,0 STARLINK-3852,1 52345U 22045Q   22131.91667824  .00022328  00000-0  16315-3 0  9990,2 52345  53.2138  16.7358 0001238  99.1642 347.6010 15.73190305  4434,6727.9230000000025,91.534,350.621,348.955,0.0
52345.0,STARLINK-3852,PAYLOAD,2022-05-12 14:00:01,15.73198783,0.0001298,53.2139,13.4348,107.3093,157.338,0.00021256,0.00029314,0.0,0 STARLINK-3852,1 52345U 22045Q   22132.58334491  .00029314  00000-0  21256-3 0  9997,2 52345  53.2139  13.4348 0001298 107.3093 157.3380 15.73198783  1303,6727.899,91.533,350.63699999999994,348.89,0.0
52345.0,STARLINK-3852,PAYLOAD,2022-05-12 22:00:00,15.732548,0.0001042,53.2138,11.7869,99.6237,253.9748,-0.00035811,-0.00050692,0.0,0 STARLINK-3852,1 52345U 22045Q   22132.91667824 -.00050692  00000-0 -35811-3 0  9990,2 52345  53.2138  11.7869 0001042  99.6237 253.9748 15.73254800  1305,6727.739000000001,91.53,350.305,348.903,0.0
52345.0,STARLINK-3852,PAYLOAD,2022-05-13 06:00:00,15.7323092,9.5e-05,53.2131,10.1372,98.9047,343.6463,-0.00036156,-0.0005112,0.0,0 STARLINK-3852,1 52345U 22045Q   22133.25001157 -.00051120  00000-0 -36156-3 0  9999,2 52345  53.2131  10.1372 0000950  98.9047 343.6463 15.73230920  4646,6727.807,91.531,350.311,349.033,0.0
52345.0,STARLINK-3852,PAYLOAD,2022-05-13 14:00:01,15.73185546,0.0001047,53.2133,8.4859,114.3022,57.1908,-0.00010552,-0.00015392,0.0,0 STARLINK-3852,1 52345U 22045Q   22133.58334491 -.00015392  00000-0 -10552-3 0  9998,2 52345  53.2133   8.4859 0001047 114.3022  57.1908 15.73185546  1306,6727.936,91.534,350.506,349.097,0.0
52345.0,STARLINK-3852,PAYLOAD,2022-05-13 22:00:00,15.731863,0.0001145,53.2139,6.8384,100.5796,159.8152,3.9899e-05,4.98e-05,0.0,0 STARLINK-3852,1 52345U 22045Q   22133.91667824  .00004980  00000-0  39899-4 0  9999,2 52345  53.2139   6.8384 0001145 100.5796 159.8152 15.73186300  1301,6727.934,91.534,350.57,349.029,0.0
52345.0,STARLINK-3852,PAYLOAD,2022-05-14 06:00:00,15.73186917,0.0001144,53.2134,5.1886,99.4396,249.866,-9.6623e-06,-1.974e-05,0.0,0 STARLINK-3852,1 52345U 22045Q   22134.25001157 -.00001974  00000-0 -96623-5 0  9999,2 52345  53.2134   5.1886 0001144  99.4396 249.8660 15.73186917  4790,6727.932,91.534,350.56699999999995,349.028,0.0
52345.0,STARLINK-3852,PAYLOAD,2022-05-14 14:00:01,15.73209929,0.0001359,53.2137,3.5374,106.3425,331.8794,6.998699999999999e-05,9.217e-05,0.0,0 STARLINK-3852,1 52345U 22045Q   22134.58334491  .00009217  00000-0  69987-4 0  9993,2 52345  53.2137   3.5374 0001359 106.3425 331.8794 15.73209929  1309,6727.8669999999975,91.533,350.646,348.8180000000001,0.0
52345.0,STARLINK-3852,PAYLOAD,2022-05-14 22:00:00,15.73195547,0.0001364,53.2134,1.8897,96.7453,70.4437,0.00040864,0.0005711,0.0,0 STARLINK-3852,1 52345U 22045Q   22134.91667824  .00057110  00000-0  40864-3 0  9996,2 52345  53.2134   1.8897 0001364  96.7453  70.4437 15.73195547  4905,6727.908,91.533,350.691,348.855,0.0
52345.0,STARLINK-3852,PAYLOAD,2022-05-15 14:00:01,15.7316362,9.82e-05,53.213,358.5883,118.6811,226.4816,0.00021723,0.00029928,0.0,0 STARLINK-3852,1 52345U 22045Q   22135.58335648  .00029928  00000-0  21723-3 0  9995,2 52345  53.2130 358.5883 0000982 118.6811 226.4816 15.73163620  5008,6727.999,91.535,350.525,349.20300000000015,0.0
52345.0,STARLINK-3852,PAYLOAD,2022-05-15 22:00:00,15.73151527,8.92e-05,53.213,356.9409,104.7181,329.2902,0.00018424,0.00025261,0.0,0 STARLINK-3852,1 52345U 22045Q   22135.91667824  .00025261  00000-0  18424-3 0  9996,2 52345  53.2130 356.9409 0000892 104.7181 329.2902 15.73151527  1300,6728.033,91.536,350.499,349.298,0.0
